H1 CPF 01  gfz 2022 08 27 00  7391 terrasarx 
H2 0702601  6201 31698    2022 08 27 00 59 42 2022 09 01 00 00 42   120 1 1  0 0 0
H9
10 0 59818  20142.000000  0   -5575223.283  -1143367.540  -3889370.108
10 0 59818  20262.000000  0   -6060470.387  -1042293.294  -3113423.323
10 0 59818  20382.000000  0   -6438112.024   -915503.370  -2282835.336
10 0 59818  20502.000000  0   -6701043.039   -767136.697  -1412144.694
10 0 59818  20622.000000  0   -6844240.260   -601821.944   -516627.107
10 0 59818  20742.000000  0   -6864868.975   -424558.920    387978.206
10 0 59818  20862.000000  0   -6762345.015   -240591.121   1285751.809
10 0 59818  20982.000000  0   -6538353.293    -55273.530   2160882.765
10 0 59818  21102.000000  0   -6196819.807    126062.136   2997956.376
10 0 59818  21222.000000  0   -5743838.167    298241.157   3782234.104
10 0 59818  21342.000000  0   -5187552.400    456374.834   4499918.834
10 0 59818  21462.000000  0   -4538000.369    595981.114   5138399.986
10 0 59818  21582.000000  0   -3806922.291    713094.668   5686473.690
10 0 59818  21702.000000  0   -3007539.730    804363.637   6134536.386
10 0 59818  21822.000000  0   -2154308.496    867130.428   6474748.516
10 0 59818  21942.000000  0   -1262651.053    899496.387   6701166.332
10 0 59818  22062.000000  0    -348673.823    900368.412   6809838.680
10 0 59818  22182.000000  0     571123.860    869486.442   6798870.722
10 0 59818  22302.000000  0    1480146.368    807431.889   6668454.648
10 0 59818  22422.000000  0    2361999.896    715617.102   6420866.676
10 0 59818  22542.000000  0    3200787.390    596255.512   6060430.482
10 0 59818  22662.000000  0    3981397.043    452312.916   5593446.737
10 0 59818  22782.000000  0    4689777.898    287440.921   5028088.553
10 0 59818  22902.000000  0    5313198.268    105892.755   4374264.757
10 0 59818  23022.000000  0    5840483.275    -87576.028   3643451.757
10 0 59818  23142.000000  0    6262225.790   -287819.257   2848494.753
10 0 59818  23262.000000  0    6570964.814   -489422.967   2003380.890
10 0 59818  23382.000000  0    6761325.258   -686837.386   1122989.907
10 0 59818  23502.000000  0    6830119.005   -874513.162    222827.201
10 0 59818  23622.000000  0    6776403.085  -1047038.804   -681257.757
10 0 59818  23742.000000  0    6601490.334  -1199276.518  -1573360.202
10 0 59818  23862.000000  0    6308915.102  -1326491.993  -2437808.179
10 0 59818  23982.000000  0    5904354.084  -1424475.269  -3259444.460
10 0 59818  24102.000000  0    5395505.901  -1489649.662  -4023895.629
10 0 59818  24222.000000  0    4791932.866  -1519165.634  -4717823.316
10 0 59818  24342.000000  0    4104870.018  -1510978.102  -5329153.146
10 0 59818  24462.000000  0    3347005.477  -1463906.427  -5847278.016
10 0 59818  24582.000000  0    2532238.078  -1377675.060  -6263231.713
10 0 59818  24702.000000  0    1675419.053  -1252933.824  -6569833.025
10 0 59818  24822.000000  0     792080.577  -1091258.557  -6761799.163
10 0 59818  24942.000000  0    -101842.920   -895133.120  -6835827.154
10 0 59818  25062.000000  0    -990296.750   -667911.613  -6790644.076
10 0 59818  25182.000000  0   -1857387.467   -413762.277  -6627026.892
10 0 59818  25302.000000  0   -2687661.149   -137592.766  -6347789.783
10 0 59818  25422.000000  0   -3466372.260    155040.936  -5957740.223
10 0 59818  25542.000000  0   -4179742.248    458041.724  -5463606.219
10 0 59818  25662.000000  0   -4815204.578    764892.780  -4873930.751
10 0 59818  25782.000000  0   -5361630.538   1068791.114  -4198936.556
10 0 59818  25902.000000  0   -5809533.485   1362792.816  -3450359.707
10 0 59818  26022.000000  0   -6151244.227   1639965.307  -2641253.323
10 0 59818  26142.000000  0   -6381054.484   1893543.272  -1785764.798
10 0 59818  26262.000000  0   -6495324.784   2117085.446   -898889.685
10 0 59818  26382.000000  0   -6492552.633   2304627.959      3794.758
10 0 59818  26502.000000  0   -6373397.616   2450829.674    906410.036
10 0 59818  26622.000000  0   -6140662.650   2551106.676   1793063.745
10 0 59818  26742.000000  0   -5799232.040   2601752.242   2648138.682
10 0 59818  26862.000000  0   -5355967.301   2600038.242   3456576.225
10 0 59818  26982.000000  0   -4819564.138   2544295.333   4204148.815
10 0 59818  27102.000000  0   -4200373.470   2433970.393   4877713.767
10 0 59818  27222.000000  0   -3510193.691   2269660.501   5465444.346
10 0 59818  27342.000000  0   -2762038.434   2053123.109   5957035.823
10 0 59818  27462.000000  0   -1969883.390   1787261.740   6343882.601
10 0 59818  27582.000000  0   -1148399.194   1476087.186   6619222.936
10 0 59818  27702.000000  0    -312676.422   1124655.835   6778249.662
10 0 59818  27822.000000  0     522051.397    738986.446   6818188.143
10 0 59818  27942.000000  0    1340684.477    325956.762   6738341.532
10 0 59818  28062.000000  0    2128528.512   -106818.452   6540102.131
10 0 59818  28182.000000  0    2871557.516   -551126.993   6226929.693
10 0 59818  28302.000000  0    3556664.718   -998313.950   5804295.619
10 0 59818  28422.000000  0    4171897.204  -1439448.935   5279592.807
10 0 59818  28542.000000  0    4706668.823  -1865503.842   4662011.919
10 0 59818  28662.000000  0    5151948.982  -2267536.715   3962386.691
10 0 59818  28782.000000  0    5500424.448  -2636879.158   3193007.934
10 0 59818  28902.000000  0    5746627.502  -2965322.749   2367407.412
10 0 59818  29022.000000  0    5887027.362  -3245299.544   1500118.089
10 0 59818  29142.000000  0    5920084.991  -3470053.449    606414.230
10 0 59818  29262.000000  0    5846266.751  -3633796.634   -297965.422
10 0 59818  29382.000000  0    5668018.389  -3731847.575  -1197103.154
10 0 59818  29502.000000  0    5389697.625  -3760746.208  -2075192.412
10 0 59818  29622.000000  0    5017468.695  -3718343.646  -2916822.684
10 0 59818  29742.000000  0    4559162.334  -3603865.692  -3707254.981
10 0 59818  29862.000000  0    4024104.393  -3417947.622  -4432681.644
10 0 59818  29982.000000  0    3422918.398  -3162640.306  -5080465.580
10 0 59818  30102.000000  0    2767307.297  -2841387.215  -5639354.076
10 0 59818  30222.000000  0    2069821.103  -2458975.547  -6099664.133
10 0 59818  30342.000000  0    1343615.234  -2021462.752  -6453440.412
10 0 59818  30462.000000  0     602201.795  -1536077.160  -6694583.176
10 0 59818  30582.000000  0    -140799.715  -1011096.792  -6818942.473
10 0 59818  30702.000000  0    -871907.734   -455709.314  -6824380.933
10 0 59818  30822.000000  0   -1578017.245    120145.404  -6710806.232
10 0 59818  30942.000000  0   -2246629.505    705948.930  -6480171.806
10 0 59818  31062.000000  0   -2866068.061   1290791.243  -6136446.653
10 0 59818  31182.000000  0   -3425679.228   1863568.827  -5685554.793
10 0 59818  31302.000000  0   -3916015.883   2413191.468  -5135284.701
10 0 59818  31422.000000  0   -4329001.364   2928795.368  -4495166.197
10 0 59818  31542.000000  0   -4658068.218   3399957.547  -3776315.157
10 0 59818  31662.000000  0   -4898269.389   3816907.636  -2991250.279
10 0 59818  31782.000000  0   -5046360.349   4170733.252  -2153681.597
10 0 59818  31902.000000  0   -5100848.457   4453572.732  -1278273.977
10 0 59818  32022.000000  0   -5062009.016   4658791.584   -380389.513
10 0 59818  32142.000000  0   -4931865.450   4781137.370    524187.055
10 0 59818  32262.000000  0   -4714133.627   4816868.238   1419534.013
10 0 59818  32382.000000  0   -4414131.505   4763850.255   2289882.696
10 0 59818  32502.000000  0   -4038655.231   4621622.526   3119904.301
10 0 59818  32622.000000  0   -3595826.329   4391428.171   3894986.856
10 0 59818  32742.000000  0   -3094914.814   4076210.551   4601497.094
10 0 59818  32862.000000  0   -2546142.314   3680575.457   5227022.877
10 0 59818  32982.000000  0   -1960469.164   3210719.541   5760590.793
10 0 59818  33102.000000  0   -1349371.389   2674327.582   6192855.077
10 0 59818  33222.000000  0    -724612.525   2080440.776   6516255.165
10 0 59818  33342.000000  0     -98016.997   1439300.321   6725140.395
10 0 59818  33462.000000  0     518753.295    762168.541   6815863.900
10 0 59818  33582.000000  0    1114415.530     61130.306   6786841.478
10 0 59818  33702.000000  0    1678271.098   -651121.619   6638577.862
10 0 59818  33822.000000  0    2200397.166  -1361515.929   6373659.114
10 0 59818  33942.000000  0    2671821.537  -2056841.670   5996710.927
10 0 59818  34062.000000  0    3084679.188  -2723994.507   5514323.463
10 0 59818  34182.000000  0    3432346.320  -3350225.231   4934941.656
10 0 59818  34302.000000  0    3709550.108  -3923386.651   4268723.465
10 0 59818  34422.000000  0    3912452.676  -4432174.003   3527366.243
10 0 59818  34542.000000  0    4038705.844  -4866353.706   2723903.239
10 0 59818  34662.000000  0    4087476.161  -5216975.091   1872473.836
10 0 59818  34782.000000  0    4059439.023  -5476559.451    988070.795
10 0 59818  34902.000000  0    3956741.234  -5639261.150     86269.710
10 0 59818  35022.000000  0    3782934.167  -5700997.200   -817052.174
10 0 59818  35142.000000  0    3542878.133  -5659543.051  -1706005.125
10 0 59818  35262.000000  0    3242619.510  -5514589.034  -2564974.690
10 0 59818  35382.000000  0    2889246.262  -5267758.990  -3378902.381
10 0 59818  35502.000000  0    2490723.475  -4922589.363  -4133553.857
10 0 59818  35622.000000  0    2055714.078  -4484470.361  -4815767.438
10 0 59818  35742.000000  0    1593390.581  -3960551.566  -5413678.826
10 0 59818  35862.000000  0    1113243.041  -3359615.566  -5916919.071
10 0 59818  35982.000000  0     624885.751  -2691923.547  -6316784.142
10 0 59818  36102.000000  0     137866.713  -1969035.317  -6606374.558
10 0 59818  36222.000000  0    -338515.541  -1203606.852  -6780703.521
10 0 59818  36342.000000  0    -795384.544   -409169.692  -6836773.774
10 0 59818  36462.000000  0   -1224446.667    400104.421  -6773622.967
10 0 59818  36582.000000  0   -1618138.251   1209649.886  -6592337.580
99
